QIANFAN-105             
1 66047U 25233Q   26004.48227272  .00000270  00000+0  20635-3 0  9991
2 66047  88.9942  59.6559 0014303 338.1033  21.9527 13.90525655 11151
QIANFAN-106             
1 66048U 25233R   26004.45771839  .00000151  00000+0  19233-3 0  9992
2 66048  88.9927  59.7741 0014017 335.5603  24.4886 13.57813851 11084
QIANFAN-107             
1 66049U 25233S   26004.46300301  .00000160  00000+0  20483-3 0  9995
2 66049  88.9941  59.7792 0013767 340.2368  19.8251 13.57810652 11089
QIANFAN-108             
1 66050U 25233T   26004.52062524  .00000058  00000+0  67632-4 0  9990
2 66050  88.9935  59.7679 0013660 340.2612  19.8011 13.54394965 11098
